{
    "links": {
        "self": "http://www.neowsapp.com/rest/v1/neo/3884106?api_key=iIulBulltgU6a56xZRHN4H3l9WmuAYTsLGpBGhQ2"
    },
    "id": "3884106",
    "neo_reference_id": "3884106",
    "name": "(2019 UM10)",
    "designation": "2019 UM10",
    "nasa_jpl_url": "http://ssd.jpl.nasa.gov/sbdb.cgi?sstr=3884106",
    "absolute_magnitude_h": 25.8,
    "estimated_diameter": {
        "kilometers": {
            "estimated_diameter_min": 0.0183888672,
            "estimated_diameter_max": 0.0411187571
        },
        "meters": {
            "estimated_diameter_min": 18.388867207,
            "estimated_diameter_max": 41.1187571041
        },
        "miles": {
            "estimated_diameter_min": 0.0114263088,
            "estimated_diameter_max": 0.0255500032
        },
        "feet": {
            "estimated_diameter_min": 60.3309310875,
            "estimated_diameter_max": 134.9040630575
        }
    },
    "is_potentially_hazardous_asteroid": false,
    "close_approach_data": [
        {
            "close_approach_date": "2019-10-29",
            "close_approach_date_full": "2019-Oct-29 14:28",
            "epoch_date_close_approach": 1572359280000,
            "relative_velocity": {
                "kilometers_per_second": "7.4341962873",
                "kilometers_per_hour": "26763.1066342551",
                "miles_per_hour": "16629.5536750459"
            },
            "miss_distance": {
                "astronomical": "0.082135687",
                "lunar": "31.950782243",
                "kilometers": "12287323.82618669",
                "miles": "7634988.986448722"
            },
            "orbiting_body": "Earth"
        },
        {
            "close_approach_date": "2024-11-02",
            "close_approach_date_full": "2024-Nov-02 02:20",
            "epoch_date_close_approach": 1730514000000,
            "relative_velocity": {
                "kilometers_per_second": "9.1542674478",
                "kilometers_per_hour": "32955.3628120704",
                "miles_per_hour": "20477.1808539778"
            },
            "miss_distance": {
                "astronomical": "0.1756059278",
                "lunar": "68.3107059142",
                "kilometers": "26270272.758253786",
                "miles": "16323590.5570268068"
            },
            "orbiting_body": "Earth"
        },
        {
            "close_approach_date": "2029-11-03",
            "close_approach_date_full": "2029-Nov-03 12:28",
            "epoch_date_close_approach": 1888403280000,
            "relative_velocity": {
                "kilometers_per_second": "12.6304108388",
                "kilometers_per_hour": "45469.479019802",
                "miles_per_hour": "28252.9660053876"
            },
            "miss_distance": {
                "astronomical": "0.3450219555",
                "lunar": "134.2135406895",
                "kilometers": "51614549.646034785",
                "miles": "32071793.961198633"
            },
            "orbiting_body": "Earth"
        }
    ],
    "orbital_data": {
        "orbit_id": "4",
        "orbit_determination_date": "2019-11-12 04:55:29",
        "first_observation_date": "2019-10-27",
        "last_observation_date": "2019-11-04",
        "data_arc_in_days": 8,
        "observations_used": 28,
        "orbit_uncertainty": "8",
        "minimum_orbit_intersection": ".0812052",
        "jupiter_tisserand_invariant": "5.411",
        "epoch_osculation": "2458785.5",
        "eccentricity": ".1008294762263762",
        "semi_major_axis": "1.155907337678807",
        "inclination": "14.09592360399674",
        "ascending_node_longitude": "31.89128962725559",
        "orbital_period": "453.9238038474808",
        "perihelion_distance": "1.039357806254428",
        "perihelion_argument": "52.60055884557333",
        "aphelion_distance": "1.272456869103186",
        "perihelion_time": "2458837.805418503878",
        "mean_anomaly": "318.5173755996216",
        "mean_motion": ".7930846475743771",
        "equinox": "J2000",
        "orbit_class": {
            "orbit_class_type": "AMO",
            "orbit_class_description": "Near-Earth asteroid orbits similar to that of 1221 Amor",
            "orbit_class_range": "1.017 AU < q (perihelion) < 1.3 AU"
        }
    },
    "is_sentry_object": false
}